{
  "type": "FeatureCollection",
  "features": [
    {
      "type": "Feature",
      "properties": {
        "norad_id": 43564,
        "name": "GSAT0221 (GALILEO 25)",
        "group": "galileo",
        "lat": -51.041626602976564,
        "lon": -140.2397776927988,
        "alt_km": 23211.189341510355,
        "timestamp": "2025-12-08T05:48:09.297741+00:00",
        "meta_object_name": "GSAT0221 (GALILEO 25)",
        "meta_object_id": "2018-060A",
        "meta_epoch": "2025-12-06T15:57:28.986048",
        "meta_mean_motion": 1.70475679,
        "meta_eccentricity": 0.00066883,
        "meta_inclination": 57.2291,
        "meta_ra_of_asc_node": 346.9817,
        "meta_arg_of_pericenter": 281.5609,
        "meta_mean_anomaly": 78.3858,
        "meta_ephemeris_type": 0,
        "meta_classification_type": "U",
        "meta_norad_cat_id": 43564,
        "meta_element_set_no": 999,
        "meta_rev_at_epoch": 4588,
        "meta_bstar": 0,
        "meta_mean_motion_dot": -8.1e-07,
        "meta_mean_motion_ddot": 0,
        "tle_line1": "1 43564U 18060A   25340.66491882 -.00000081  00000+0  00000+0 0  9993",
        "tle_line2": "2 43564  57.2291 346.9817 0006688 281.5609  78.3858  1.70475679 45887"
      },
      "geometry": {
        "type": "Point",
        "coordinates": [
          -140.2397776927988,
          -51.041626602976564
        ]
      }
    },
    {
      "type": "Feature",
      "properties": {
        "norad_id": 43565,
        "name": "GSAT0222 (GALILEO 26)",
        "group": "galileo",
        "lat": 50.66339882924356,
        "lon": 115.1278352351712,
        "alt_km": 23231.718173298832,
        "timestamp": "2025-12-08T05:48:09.297752+00:00",
        "meta_object_name": "GSAT0222 (GALILEO 26)",
        "meta_object_id": "2018-060B",
        "meta_epoch": "2025-12-05T17:03:57.438144",
        "meta_mean_motion": 1.70475397,
        "meta_eccentricity": 0.00061787,
        "meta_inclination": 57.2328,
        "meta_ra_of_asc_node": 347.0105,
        "meta_arg_of_pericenter": 261.4004,
        "meta_mean_anomaly": 98.5552,
        "meta_ephemeris_type": 0,
        "meta_classification_type": "U",
        "meta_norad_cat_id": 43565,
        "meta_element_set_no": 999,
        "meta_rev_at_epoch": 4591,
        "meta_bstar": 0,
        "meta_mean_motion_dot": -7.7e-07,
        "meta_mean_motion_ddot": 0,
        "tle_line1": "1 43565U 18060B   25339.71108146 -.00000077  00000+0  00000+0 0  9991",
        "tle_line2": "2 43565  57.2328 347.0105 0006178 261.4004  98.5552  1.70475397 45917"
      },
      "geometry": {
        "type": "Point",
        "coordinates": [
          115.1278352351712,
          50.66339882924356
        ]
      }
    },
    {
      "type": "Feature",
      "properties": {
        "norad_id": 43566,
        "name": "GSAT0219 (GALILEO 23)",
        "group": "galileo",
        "lat": -18.839805340154925,
        "lon": -25.755005607224614,
        "alt_km": 23214.119801679615,
        "timestamp": "2025-12-08T05:48:09.297763+00:00",
        "meta_object_name": "GSAT0219 (GALILEO 23)",
        "meta_object_id": "2018-060C",
        "meta_epoch": "2025-12-05T22:22:25.031424",
        "meta_mean_motion": 1.70475627,
        "meta_eccentricity": 0.00057672,
        "meta_inclination": 57.232,
        "meta_ra_of_asc_node": 347.0061,
        "meta_arg_of_pericenter": 285.4394,
        "meta_mean_anomaly": 74.5216,
        "meta_ephemeris_type": 0,
        "meta_classification_type": "U",
        "meta_norad_cat_id": 43566,
        "meta_element_set_no": 999,
        "meta_rev_at_epoch": 4589,
        "meta_bstar": 0,
        "meta_mean_motion_dot": -7.8e-07,
        "meta_mean_motion_ddot": 0,
        "tle_line1": "1 43566U 18060C   25339.93223416 -.00000078  00000+0  00000+0 0  9995",
        "tle_line2": "2 43566  57.2320 347.0061 0005767 285.4394  74.5216  1.70475627 45896"
      },
      "geometry": {
        "type": "Point",
        "coordinates": [
          -25.755005607224614,
          -18.839805340154925
        ]
      }
    },
    {
      "type": "Feature",
      "properties": {
        "norad_id": 43567,
        "name": "GSAT0220 (GALILEO 24)",
        "group": "galileo",
        "lat": -18.14305904400085,
        "lon": 179.12811161083854,
        "alt_km": 23221.765542486068,
        "timestamp": "2025-12-08T05:48:09.297774+00:00",
        "meta_object_name": "GSAT0220 (GALILEO 24)",
        "meta_object_id": "2018-060D",
        "meta_epoch": "2025-12-07T07:49:54.342624",
        "meta_mean_motion": 1.70475454,
        "meta_eccentricity": 0.00061757,
        "meta_inclination": 57.2312,
        "meta_ra_of_asc_node": 346.9681,
        "meta_arg_of_pericenter": 282.9528,
        "meta_mean_anomaly": 76.9979,
        "meta_ephemeris_type": 0,
        "meta_classification_type": "U",
        "meta_norad_cat_id": 43567,
        "meta_element_set_no": 999,
        "meta_rev_at_epoch": 4590,
        "meta_bstar": 0,
        "meta_mean_motion_dot": -8.3e-07,
        "meta_mean_motion_ddot": 0,
        "tle_line1": "1 43567U 18060D   25341.32632341 -.00000083  00000+0  00000+0 0  9999",
        "tle_line2": "2 43567  57.2312 346.9681 0006175 282.9528  76.9979  1.70475454 45901"
      },
      "geometry": {
        "type": "Point",
        "coordinates": [
          179.12811161083854,
          -18.14305904400085
        ]
      }
    },
    {
      "type": "Feature",
      "properties": {
        "norad_id": 49809,
        "name": "GSAT0223 (GALILEO 27)",
        "group": "galileo",
        "lat": -50.91627721655165,
        "lon": -65.6786834175114,
        "alt_km": 23217.246078934586,
        "timestamp": "2025-12-08T05:48:09.297785+00:00",
        "meta_object_name": "GSAT0223 (GALILEO 27)",
        "meta_object_id": "2021-116A",
        "meta_epoch": "2025-12-07T10:58:36.115680",
        "meta_mean_motion": 1.70475566,
        "meta_eccentricity": 0.00047089,
        "meta_inclination": 57.2204,
        "meta_ra_of_asc_node": 346.8553,
        "meta_arg_of_pericenter": 250.7746,
        "meta_mean_anomaly": 280.3454,
        "meta_ephemeris_type": 0,
        "meta_classification_type": "U",
        "meta_norad_cat_id": 49809,
        "meta_element_set_no": 999,
        "meta_rev_at_epoch": 2491,
        "meta_bstar": 0,
        "meta_mean_motion_dot": -8.4e-07,
        "meta_mean_motion_ddot": 0,
        "tle_line1": "1 49809U 21116A   25341.45736245 -.00000084  00000+0  00000+0 0  9993",
        "tle_line2": "2 49809  57.2204 346.8553 0004708 250.7746 280.3454  1.70475566 24919"
      },
      "geometry": {
        "type": "Point",
        "coordinates": [
          -65.6786834175114,
          -50.91627721655165
        ]
      }
    },
    {
      "type": "Feature",
      "properties": {
        "norad_id": 49810,
        "name": "GSAT0224 (GALILEO 28)",
        "group": "galileo",
        "lat": 36.56730109154078,
        "lon": 15.388013607795354,
        "alt_km": 23227.96752000134,
        "timestamp": "2025-12-08T05:48:09.297796+00:00",
        "meta_object_name": "GSAT0224 (GALILEO 28)",
        "meta_object_id": "2021-116B",
        "meta_epoch": "2025-12-07T13:56:35.698272",
        "meta_mean_motion": 1.7047563,
        "meta_eccentricity": 0.00040182,
        "meta_inclination": 57.2213,
        "meta_ra_of_asc_node": 346.8506,
        "meta_arg_of_pericenter": 254.5241,
        "meta_mean_anomaly": 105.0474,
        "meta_ephemeris_type": 0,
        "meta_classification_type": "U",
        "meta_norad_cat_id": 49810,
        "meta_element_set_no": 999,
        "meta_rev_at_epoch": 2493,
        "meta_bstar": 0,
        "meta_mean_motion_dot": -8.4e-07,
        "meta_mean_motion_ddot": 0,
        "tle_line1": "1 49810U 21116B   25341.58096873 -.00000084  00000+0  00000+0 0  9995",
        "tle_line2": "2 49810  57.2213 346.8506 0004018 254.5241 105.0474  1.70475630 24934"
      },
      "geometry": {
        "type": "Point",
        "coordinates": [
          15.388013607795354,
          36.56730109154078
        ]
      }
    },
    {
      "type": "Feature",
      "properties": {
        "norad_id": 59598,
        "name": "GSAT0225 (GALILEO 29)",
        "group": "galileo",
        "lat": 29.995471953324774,
        "lon": 130.2413535623136,
        "alt_km": 23222.771903419463,
        "timestamp": "2025-12-08T05:48:09.297807+00:00",
        "meta_object_name": "GSAT0225 (GALILEO 29)",
        "meta_object_id": "2024-079A",
        "meta_epoch": "2025-12-07T07:17:21.433056",
        "meta_mean_motion": 1.70474562,
        "meta_eccentricity": 0.00020328,
        "meta_inclination": 54.9984,
        "meta_ra_of_asc_node": 106.4468,
        "meta_arg_of_pericenter": 173.4457,
        "meta_mean_anomaly": 8.4253,
        "meta_ephemeris_type": 0,
        "meta_classification_type": "U",
        "meta_norad_cat_id": 59598,
        "meta_element_set_no": 999,
        "meta_rev_at_epoch": 1004,
        "meta_bstar": 0,
        "meta_mean_motion_dot": 7e-08,
        "meta_mean_motion_ddot": 0,
        "tle_line1": "1 59598U 24079A   25341.30372029  .00000007  00000+0  00000+0 0  9994",
        "tle_line2": "2 59598  54.9984 106.4468 0002032 173.4457   8.4253  1.70474562 10047"
      },
      "geometry": {
        "type": "Point",
        "coordinates": [
          130.2413535623136,
          29.995471953324774
        ]
      }
    }
  ]
}